#dP2024  3 16 18  0  0.00000000      96 __u+U IGS20 EXT  IAC
## 2305 583200.00000000   900.00000000 60385 0.7500000000000
+  118   C06C07C08C09C10C11C12C13C14C16C19C20C21C22C23C24C25
+        C26C27C28C29C30C32C33C34C35C36C37C38C39C40C41C42C43
+        C44C45C46E02E03E04E05E07E08E09E10E11E12E13E14E15E18
+        E19E21E24E25E26E27E30E31E33E34E36G01G02G03G04G05G06
+        G07G08G09G10G11G12G13G14G15G16G17G18G19G20G21G22G23
+        G24G25G26G27G28G29G30G31G32J02J03R01R02R03R04R05R07
+        R08R09R11R12R13R14R15R16R17R18R19R20R21R22R24R25  0
++         0  0  0  0  0  0  0  0  0  0  0  0  0  0  0  0  0
++         0  0  0  0  0  0  0  0  0  0  0  0  0  0  0  0  0
++         0  0  0  0  0  0  0  0  0  0  0  0  0  0  0  0  0
++         0  0  0  0  0  0  0  0  0  0  0  0  0  0  0  0  0
++         0  0  0  0  0  0  0  0  0  0  0  0  0  0  0  0  0
++         0  0  0  0  0  0  0  0  0  0  0  0  0  0  0  0  0
++         0  0  0  0  0  0  0  0  0  0  0  0  0  0  0  0  0
%c M  cc GPS ccc cccc cccc cccc cccc ccccc ccccc ccccc ccccc
%c cc cc ccc ccc cccc cccc cccc cccc ccccc ccccc ccccc ccccc
%f  0.0000000  0.000000000  0.00000000000  0.000000000000000
%f  0.0000000  0.000000000  0.00000000000  0.000000000000000
%i    0    0    0    0      0      0      0      0         0
%i    0    0    0    0      0      0      0      0         0
/* IAC                                ULTRA-RAPID PREDICTION
/* S/V CLOCKS ARE ALIGNED TO GNSS TIME                      
/* G:C1WC2W R:C1PC2P E:C1XC5X C:C2IC6I J:C1CC2S             
/* PCV:IGS20_2290 OL/AL:FES2004  NONE     YN ORB:CoN CLK:CoN
*  2024 03 17 15 15  0.00000000
PC06 -16722.731844  37101.253122 -11556.833806    279.627977
PC07  -3760.536228  33907.629718 -24571.221597   -906.839097
PC08 -12021.371406  18894.919284  35688.753899     53.914710
PC09 -12670.535841  36156.465233 -17832.023672   -633.637292
PC10   3596.297494  36771.294033 -19490.488673     41.203476
PC11   5907.759814 -26954.927844  -4106.169081    464.566268
PC12  15455.275666 -18740.714160  13767.374378   -214.838565
PC13  -2511.903440  21672.002302  36235.777907    425.471438
PC14  -3523.900537 -21108.537795 -17925.532397    427.353351
PC16 -20035.423989  36513.943640  -7356.860476   -401.746778
PC19  11887.129761  22802.273104  10832.268512   -918.777950
PC20  -3983.260430  17020.845383  21759.496465   -266.172620
PC21  18922.815191   -328.342879 -20477.695926   -961.370865
PC22  21867.330281  15814.644792  -7038.510040    -71.588202
PC23 -21256.712946  -7051.367817  16645.222783   -776.253138
PC24  17139.341751 -15767.597898  15372.788780    953.685781
PC25  -3714.475383 -15880.988378  22630.681625    351.810796
PC26  26997.541401  -7121.021556   -462.291249   -264.075217
PC27 -17209.829309  10385.942853 -19383.913510    285.988458
PC28 -14061.002034  -8323.646836 -22618.168090    218.158542
PC29   2200.913764  25196.901989  11790.397355    255.820322
PC30 -10856.397487  24944.987630  -6285.866423    -39.755778
PC32 -19008.781778    391.209206  20453.902583   -584.632464
PC33 -12011.927991 -22740.976884 -10851.126853   -958.916082
PC34   9975.792412 -25605.398670   4768.113239    392.129327
PC35  14357.220286   8052.185072  22523.298373    409.014026
PC36   2978.478095  16049.149566 -22617.936362     21.357316
PC37 -27165.890066   6278.704200    800.324000   -945.712723
PC38 -20196.690327  19449.541465  31499.836176    143.308773
PC39 -21546.843781  36367.326835  -1137.220964     -7.591874
PC40  -7261.948988  30051.239945 -28549.993534    -61.185967
PC41 -21816.920366 -16256.995712   6307.173900   -907.197109
PC42   5416.415330 -16004.723916 -22167.943142   -446.639303
PC43  -1597.060014 -25590.690456 -10995.667111     64.489225
PC44  16908.754194 -10803.008666  19363.963767    416.039010
PC45  21307.600234   6956.048415 -16645.036700    -76.032615
PC46 -16352.415646  15884.526425 -16078.918874   -132.374932
PE02 -19342.604155 -17374.966115  14119.975340    111.946755
PE03 -12050.647907 -24945.252841  10445.091969   -100.929613
PE04  17517.413338   6465.500303 -22955.169179   -351.823590
PE05    367.701651 -28509.509620  -7950.123204   4729.919736
PE07 -12866.234982  15038.314879  22017.356293   -109.426004
PE08 -17383.340419  -7345.758717  22812.019324   -240.354731
PE09  12770.096622 -14931.615159 -22136.901752   -373.770413
PE10  24738.090282 -11292.989263  11681.802454   -610.009194
PE11  23147.229809 -18365.312290   1540.867781   3160.545628
PE12  22551.991580  -3149.034622  18895.960078   -952.639593
PE13 -23366.442376  18051.002737  -2204.165610    -20.577807
PE14 -17155.433351 -22218.663402 -16151.363842     69.022246
PE15 -22295.158617   2750.259916 -19276.434539    -91.750367
PE18  14652.753002  10617.756223  15490.539315    445.845551
PE19  10737.726123  26220.192272  -8555.081925   -415.879075
PE21   -189.865359  17470.753410 -23902.695047   -584.422717
PE24  20796.223577  -7089.403985  19823.062346   -656.212015
PE25    651.266968 -17352.316006  23967.423956      2.223675
PE26 -10152.432636  22555.672415  16270.988989    399.079043
PE27 -20452.086277   7393.991181 -20081.666873   -301.027899
PE30 -28402.308977  -7122.324778  -4299.038470   -104.121388
PE31  28431.851862   6932.484839   4460.051928    -18.488673
PE33   7658.080940  14330.104714  24746.286378      9.139953
PE34  -8197.478831 -13930.164724 -24799.685025   -100.482164
PE36  10764.201403 -22540.967009 -15863.881834   -200.503854
PG01   6184.964499 -19745.639827 -16804.638918    174.463830
PG02  13501.005429 -21385.462462  -7161.626128   -468.790082
PG03   3711.780575 -14345.667370 -22191.583696    257.546246
PG04   2864.847112 -24364.458173  -9996.458397    317.087215
PG05 -17588.052060   7978.148034  18100.074085   -165.732720
PG06 -18807.558342     43.182355 -18732.921419    363.896844
PG07  -4707.354699 -15975.421923  21095.571484    -86.388374
PG08   7921.435977 -18518.266732  16986.979083     61.421332
PG09  -7711.115199 -25248.719925   2550.465546    127.774192
PG10  23993.317228  11019.811786   4401.383164     -0.863375
PG11 -22697.513242   9991.817348  -9421.285263   -609.451993
PG12  -5818.709498  14159.146063 -21992.936483   -488.027792
PG13 -13346.513529   9999.495601  20413.591558    634.924911
PG14 -21728.438435 -13534.305633   7478.671003    352.865418
PG15  -5706.098725  19560.611432  16438.527455    138.620142
PG16  21918.937160  -1851.284782  14868.688409   -338.995144
PG17 -12428.883900 -18322.925730 -14134.813136    713.355867
PG18   4809.545061  14984.428473  21378.859089   -577.294078
PG19 -14838.360620  -9595.629842 -20126.952660    455.250927
PG20 -25061.514411   2332.867479   8294.973159    383.597712
PG21  16559.109482 -19887.913229  -2162.794735    130.994237
PG22 -24201.600778 -10539.717481     48.868182     14.562274
PG23  15908.319211  15276.016451  14960.965246    179.218379
PG24 -13835.328824  21655.032052  -6200.875666   -447.542441
PG25   6245.022421  16877.336190 -19957.646090    491.535964
PG26  26216.353903   3397.225234   3985.901935    178.409646
PG27  13899.313042  -6268.700441  21428.042047    -12.438437
PG28  17533.774861   2389.465124 -19821.409463   -167.868631
PG29   3982.894011  26185.084474    881.560120   -604.568514
PG30 -14441.902475  -7891.945808  21020.802260   -418.469567
PG31  22239.623856  -6245.313259 -13667.063232   -227.984546
PG32  14750.446019  15071.455132 -16062.861781   -616.087381
PJ02 -27270.625965  15603.570996 -23507.345066     -3.011276
PJ03 -27241.566005  31764.384807   -642.293571     -0.185694
PR01  16257.600284  19055.721745  -4774.163889     79.933255
PR02  15227.793518   6933.483883 -19227.830798    -22.611317
PR03   6189.499775  -9886.321274 -22625.676621     96.521307
PR04  -6000.833390 -20711.871930 -13581.755168    227.980382
PR05 -14860.524140 -20531.669814   2797.063509    128.539875
PR07  -5564.591609  10736.083030  22512.980999     78.157467
PR08   6218.541878  20806.825021  13473.926445    -74.762394
PR09 -25415.414544   1302.561648   2306.932822    175.852272
PR11  -4037.410654  11079.387416 -22613.638126     30.965196
PR12  16527.384215   7454.184136 -17930.325422     37.906632
PR13  25060.262188    250.288945  -4782.877139    -45.386234
PR14  19399.816546  -8453.533685  14234.820717     26.226605
PR15   2385.437221 -11172.890422  22819.459688     81.276735
PR16 -16325.337141  -7363.871447  18183.256125     24.091712
PR17  13975.651056 -19900.656959   7763.194863     69.793057
PR18   7305.153160 -22763.930262  -8799.740593    132.620024
PR19  -1673.947574 -15502.197037 -20187.072114   -269.673914
PR20 -13289.814739   4293.238237 -21349.800599   -109.918579
PR21 -14071.790521  19839.699504  -7653.703037    -85.270934
PR22  -7124.036114  22468.336088   9800.432445    113.237615
PR24  13649.380310  -5169.554653  20937.229736    -48.128460
PR25 -14812.336023  19342.907861  -7528.655128    -23.313714
EOF
